#dV2023  1  4 22  0  0.00000000    1682       CTS   FIT  GFZ
## 2243 338400.00000000    30.00000000 59948 0.9166666666667
+    1   L65  0  0  0  0  0  0  0  0  0  0  0  0  0  0  0  0
+          0  0  0  0  0  0  0  0  0  0  0  0  0  0  0  0  0
+          0  0  0  0  0  0  0  0  0  0  0  0  0  0  0  0  0
+          0  0  0  0  0  0  0  0  0  0  0  0  0  0  0  0  0
+          0  0  0  0  0  0  0  0  0  0  0  0  0  0  0  0  0
++         0  0  0  0  0  0  0  0  0  0  0  0  0  0  0  0  0
++         0  0  0  0  0  0  0  0  0  0  0  0  0  0  0  0  0
++         0  0  0  0  0  0  0  0  0  0  0  0  0  0  0  0  0
++         0  0  0  0  0  0  0  0  0  0  0  0  0  0  0  0  0
++         0  0  0  0  0  0  0  0  0  0  0  0  0  0  0  0  0
%c L  cc GPS ccc cccc cccc cccc cccc ccccc ccccc ccccc ccccc
%c cc cc ccc ccc cccc cccc cccc cccc ccccc ccccc ccccc ccccc
%f  0.0000000  0.000000000  0.00000000000  0.000000000000000
%f  0.0000000  0.000000000  0.00000000000  0.000000000000000
%i    0    0    0    0      0      0      0      0         0
%i    0    0    0    0      0      0      0      0         0
/* CCCCCCCCCCCCCCCCCCCCCCCCCCCCCCCCCCCCCCCCCCCCCCCCCCCCCCCCCCCCCCCCCCCCCCCCCCCCC
/* C                             GFZ RSO-ORBIT                                 C
/* C DOI: https://doi.org/10.5880/GFZ_ORBIT/RSO/L65_G_v02                      C
/* C                                                                           C
/* C DORIS        RMS: not applicable                                          C
/* C GNSS-E Code  RMS: not applicable                                          C
/* C GNSS-E Phase RMS: not applicable                                          C
/* C GNSS-G Code  RMS:  47.061 [cm]   Obs.acc.:     14635 Obs.eli.:      1266  C
/* C GNSS-G Phase RMS:   3.967 [mm]   Obs.acc.:     14635 Obs.eli.:      1266  C
/* C SLR          RMS:   2.967 [cm]   Obs.acc.:        66 Obs.eli.:         0  C
/* C                                                                           C
/* CCCCCCCCCCCCCCCCCCCCCCCCCCCCCCCCCCCCCCCCCCCCCCCCCCCCCCCCCCCCCCCCCCCCCCCCCCCCC
*  2023  1  5  1 24  0.00000000
PL65    539.487349   1496.157692  -6685.811173  19932.156755
VL65 -29415.484981 -67856.779701 -17486.737911 999999.999999
*  2023  1  5  1 24 30.00000000
PL65    450.515617   1291.999759  -6734.576255  19932.623590
VL65 -29893.867076 -68235.742449 -15020.332709 999999.999999
*  2023  1  5  1 25  0.00000000
PL65    360.155382   1086.819961  -6775.916611  19933.090414
VL65 -30341.013889 -68537.984363 -12537.369738 999999.999999
*  2023  1  5  1 25 30.00000000
PL65    268.501596    880.848767  -6809.786626  19933.557252
VL65 -30756.099957 -68763.315654 -10040.559215 999999.999999
*  2023  1  5  1 26  0.00000000
PL65    175.651635    674.317082  -6836.148844  19934.024194
VL65 -31138.334874 -68911.635102  -7532.627448 999999.999999
*  2023  1  5  1 26 30.00000000
PL65     81.705193    467.455984  -6854.974004  19934.491331
VL65 -31486.964663 -68982.929167  -5016.309743 999999.999999
*  2023  1  5  1 27  0.00000000
PL65    -13.235829    260.496464  -6866.241057  19934.958201
VL65 -31801.271719 -68977.269215  -2494.346419 999999.999999
*  2023  1  5  1 27 30.00000000
PL65   -109.067431     53.669171  -6869.937180  19935.424847
VL65 -32080.574226 -68894.809363     30.519619 999999.999999
*  2023  1  5  1 28  0.00000000
PL65   -205.683621   -152.795825  -6866.057782  19935.891515
VL65 -32324.225052 -68735.784288   2555.542647 999999.999999
*  2023  1  5  1 28 30.00000000
PL65   -302.976519   -358.669283  -6854.606518  19936.358055
VL65 -32531.614072 -68500.510653   5077.971872 999999.999999
*  2023  1  5  1 29  0.00000000
PL65   -400.836474   -563.723039  -6835.595297  19936.824555
VL65 -32702.172884 -68189.390583   7595.055524 999999.999999
*  2023  1  5  1 29 30.00000000
PL65   -499.152199   -767.730263  -6809.044276  19937.292260
VL65 -32835.375882 -67802.910194  10104.048416 999999.999999
*  2023  1  5  1 30  0.00000000
PL65   -597.810888   -970.465704  -6774.981833  19937.760770
VL65 -32930.739059 -67341.636119  12602.214694 999999.999999
*  2023  1  5  1 30 30.00000000
PL65   -696.698350  -1171.705930  -6733.444541  19938.228576
VL65 -32987.820138 -66806.214503  15086.828016 999999.999999
*  2023  1  5  1 31  0.00000000
PL65   -795.699126  -1371.229567  -6684.477134  19938.696134
VL65 -33006.219640 -66197.371459  17555.172440 999999.999999
*  2023  1  5  1 31 30.00000000
PL65   -894.696629  -1568.817542  -6628.132479  19939.163379
VL65 -32985.582802 -65515.914186  20004.544774 999999.999999
*  2023  1  5  1 32  0.00000000
PL65   -993.573277  -1764.253324  -6564.471524  19939.630244
VL65 -32925.601600 -64762.731016  22432.259470 999999.999999
*  2023  1  5  1 32 30.00000000
PL65  -1092.210632  -1957.323167  -6493.563244  19940.096837
VL65 -32826.015233 -63938.789229  24835.653401 999999.999999
*  2023  1  5  1 33  0.00000000
PL65  -1190.489547  -2147.816342  -6415.484563  19940.563355
VL65 -32686.609325 -63045.132641  27212.088581 999999.999999
*  2023  1  5  1 33 30.00000000
PL65  -1288.290299  -2335.525364  -6330.320284  19941.029785
VL65 -32507.215656 -62082.880139  29558.953212 999999.999999
*  2023  1  5  1 34  0.00000000
PL65  -1385.492731  -2520.246218  -6238.163000  19941.496159
VL65 -32287.713685 -61053.225446  31873.663215 999999.999999
*  2023  1  5  1 34 30.00000000
PL65  -1481.976400  -2701.778580  -6139.113013  19941.962547
VL65 -32028.032052 -59957.436454  34153.665747 999999.999999
*  2023  1  5  1 35  0.00000000
PL65  -1577.620720  -2879.926040  -6033.278232  19942.428945
VL65 -31728.148895 -58796.853441  36396.442380 999999.999999
*  2023  1  5  1 35 30.00000000
PL65  -1672.305118  -3054.496315  -5920.774068  19942.895362
VL65 -31388.092019 -57572.887551  38599.511385 999999.999999
*  2023  1  5  1 36  0.00000000
PL65  -1765.909175  -3225.301461  -5801.723316  19943.361699
VL65 -31007.939285 -56287.019717  40760.430018 999999.999999
*  2023  1  5  1 36 30.00000000
PL65  -1858.312784  -3392.158079  -5676.256041  19943.828060
VL65 -30587.819301 -54940.799376  42876.797069 999999.999999
*  2023  1  5  1 37  0.00000000
PL65  -1949.396302  -3554.887520  -5544.509444  19944.294535
VL65 -30127.912415 -53535.843348  44946.255308 999999.999999
*  2023  1  5  1 37 30.00000000
PL65  -2039.040703  -3713.316085  -5406.627729  19944.760841
VL65 -29628.451443 -52073.835005  46966.495064 999999.999999
*  2023  1  5  1 38  0.00000000
PL65  -2127.127740  -3867.275223  -5262.761952  19945.227315
VL65 -29089.721464 -50556.521908  48935.258257 999999.999999
*  2023  1  5  1 38 30.00000000
PL65  -2213.540098  -4016.601718  -5113.069862  19945.693848
VL65 -28512.059445 -48985.712993  50850.340911 999999.999999
*  2023  1  5  1 39  0.00000000
PL65  -2298.161552  -4161.137871  -4957.715737  19946.160383
VL65 -27895.854243 -47363.276556  52709.595404 999999.999999
*  2023  1  5  1 39 30.00000000
PL65  -2380.877119  -4300.731674  -4796.870208  19946.626906
VL65 -27241.546557 -45691.138279  54510.932979 999999.999999
*  2023  1  5  1 40  0.00000000
PL65  -2461.573219  -4435.236978  -4630.710085  19947.093432
VL65 -26549.628777 -43971.279206  56252.326251 999999.999999
*  2023  1  5  1 40 30.00000000
PL65  -2540.137824  -4564.513661  -4459.418161  19947.559900
VL65 -25820.644756 -42205.733499  57931.811838 999999.999999
*  2023  1  5  1 41  0.00000000
PL65  -2616.460615  -4688.427776  -4283.183021  19948.026638
VL65 -25055.189447 -40396.585870  59547.492751 999999.999999
*  2023  1  5  1 41 30.00000000
PL65  -2690.433134  -4806.851705  -4102.198840  19948.493443
VL65 -24253.908547 -38545.969201  61097.540340 999999.999999
*  2023  1  5  1 42  0.00000000
PL65  -2761.948935  -4919.664300  -3916.665173  19948.960112
VL65 -23417.498281 -36656.062536  62580.196359 999999.999999
*  2023  1  5  1 42 30.00000000
PL65  -2830.903739  -5026.751012  -3726.786741  19949.426640
VL65 -22546.705129 -34729.088898  63993.775462 999999.999999
*  2023  1  5  1 43  0.00000000
PL65  -2897.195578  -5128.004029  -3532.773210  19949.893157
VL65 -21642.325342 -32767.312706  65336.667714 999999.999999
*  2023  1  5  1 43 30.00000000
PL65  -2960.724948  -5223.322388  -3334.838957  19950.359832
VL65 -20705.204279 -30773.036925  66607.340970 999999.999999
*  2023  1  5  1 44  0.00000000
PL65  -3021.394954  -5312.612089  -3133.202838  19950.826711
VL65 -19736.235540 -28748.599974  67804.342848 999999.999999
*  2023  1  5  1 44 30.00000000
PL65  -3079.111453  -5395.786197  -2928.087945  19951.293369
VL65 -18736.360246 -26696.373020  68926.302152 999999.999999
*  2023  1  5  1 45  0.00000000
PL65  -3133.783196  -5472.764937  -2719.721358  19951.759996
VL65 -17706.566482 -24618.757746  69971.930836 999999.999999
*  2023  1  5  1 45 30.00000000
PL65  -3185.321966  -5543.475783  -2508.333896  19952.226544
VL65 -16647.888363 -22518.183471  70940.026446 999999.999999
*  2023  1  5  1 46  0.00000000
PL65  -3233.642719  -5607.853532  -2294.159851  19952.693094
VL65 -15561.404784 -20397.103861  71829.473925 999999.999999
*  2023  1  5  1 46 30.00000000
PL65  -3278.663710  -5665.840375  -2077.436730  19953.159623
VL65 -14448.238259 -18257.993898  72639.247107 999999.999999
*  2023  1  5  1 47  0.00000000
PL65  -3320.306629  -5717.385958  -1858.404981  19953.626158
VL65 -13309.553691 -16103.346882  73368.410343 999999.999999
*  2023  1  5  1 47 30.00000000
PL65  -3358.496719  -5762.447428  -1637.307724  19954.092565
VL65 -12146.556982 -13935.671234  74016.120071 999999.999999
*  2023  1  5  1 48  0.00000000
PL65  -3393.162903  -5800.989477  -1414.390468  19954.558983
VL65 -10960.493545 -11757.487203  74581.626150 999999.999999
*  2023  1  5  1 48 30.00000000
PL65  -3424.237896  -5832.984371  -1189.900830  19955.025382
VL65  -9752.646704  -9571.323588  75064.273019 999999.999999
*  2023  1  5  1 49  0.00000000
PL65  -3451.658318  -5858.411972   -964.088252  19955.491785
VL65  -8524.335957  -7379.714247  75463.500725 999999.999999
EOF
